[{"OBJECT_NAME":"STARLINK-32757","OBJECT_ID":"2025-003F","EPOCH":"2026-03-09T14:06:20.201184","MEAN_MOTION":15.27601008,"ECCENTRICITY":0.00013,"INCLINATION":42.9926,"RA_OF_ASC_NODE":289.7462,"ARG_OF_PERICENTER":75.9369,"MEAN_ANOMALY":284.1627,"EPHEMERIS_TYPE":0,"CLASSIFICATION_TYPE":"U","NORAD_CAT_ID":62492,"ELEMENT_SET_NO":999,"REV_AT_EPOCH":6653,"BSTAR":0.00081611,"MEAN_MOTION_DOT":0.00022278,"MEAN_MOTION_DDOT":0},{"OBJECT_NAME":"OBJECT V","OBJECT_ID":"2025-155V","EPOCH":"2026-03-09T20:35:20.067360","MEAN_MOTION":15.27583301,"ECCENTRICITY":0.00080353,"INCLINATION":97.4485,"RA_OF_ASC_NODE":37.249,"ARG_OF_PERICENTER":152.8264,"MEAN_ANOMALY":207.3397,"EPHEMERIS_TYPE":0,"CLASSIFICATION_TYPE":"U","NORAD_CAT_ID":64895,"ELEMENT_SET_NO":999,"REV_AT_EPOCH":6557,"BSTAR":0.00051002361,"MEAN_MOTION_DOT":0.00013705,"MEAN_MOTION_DDOT":0}]
