STARLINK-32757          
1 62492U 25003F   26068.58773381  .00022278  00000+0  81611-3 0  9997
2 62492  42.9926 289.7462 0001300  75.9369 284.1627 15.27601008 66538
2025-155V               
1 64895U 25155V   26068.85787115  .00013705  00000+0  51002-3 0  9990
2 64895  97.4485  37.2490 0008035 152.8264 207.3397 15.27583301 65579
